{"type": "FeatureCollection", "features": [ {"type": "Feature", "properties": {"norad_id": 67223, "name": "ELECTRON KICK STAGE R/B", "group": "last-30-days", "lat": 11.419635829591916, "lon": 94.54164131573717, "alt_km": 300.45443887466445, "timestamp": "2025-12-24T11:32:58.722879+00:00", "meta": {"OBJECT_NAME": "ELECTRON KICK STAGE R/B", "OBJECT_ID": "2025-305E", "EPOCH": "2025-12-23T06:58:48.011808", "MEAN_MOTION": 15.48545747, "ECCENTRICITY": 0.017749, "INCLINATION": 44.9877, "RA_OF_ASC_NODE": 292.9264, "ARG_OF_PERICENTER": 166.6089, "MEAN_ANOMALY": 193.9601, "EPHEMERIS_TYPE": 0, "CLASSIFICATION_TYPE": "U", "NORAD_CAT_ID": 67223, "ELEMENT_SET_NO": 999, "REV_AT_EPOCH": 79, "BSTAR": 0.00018366, "MEAN_MOTION_DOT": 0.00018707, "MEAN_MOTION_DDOT": 0}, "tle": {"line1": "1 67223U 25305E   25357.29083347  .00018707  00000+0  18366-3 0  9992", "line2": "2 67223  44.9877 292.9264 0177490 166.6089 193.9601 15.48545747   794"}}, "geometry": {"type": "Point", "coordinates": [94.54164131573717, 11.419635829591916]}}, {"type": "Feature", "properties": {"norad_id": 67224, "name": "ELECTRON R/B", "group": "last-30-days", "lat": -4.869685357701436, "lon": 110.10972343094025, "alt_km": 473.153241250071, "timestamp": "2025-12-24T11:32:58.722890+00:00", "meta": {"OBJECT_NAME": "ELECTRON R/B", "OBJECT_ID": "2025-305F", "EPOCH": "2025-12-18T18:27:13.126752", "MEAN_MOTION": 15.64663678, "ECCENTRICITY": 0.0262888, "INCLINATION": 45.0188, "RA_OF_ASC_NODE": 318.3021, "ARG_OF_PERICENTER": 280.1207, "MEAN_ANOMALY": 77.0133, "EPHEMERIS_TYPE": 0, "CLASSIFICATION_TYPE": "U", "NORAD_CAT_ID": 67224, "ELEMENT_SET_NO": 999, "REV_AT_EPOCH": 9, "BSTAR": 0.00022935, "MEAN_MOTION_DOT": 0.00172783, "MEAN_MOTION_DDOT": 8.6369e-06}, "tle": {"line1": "1 67224U 25305F   25352.76890193  .00172783  86369-5  22935-3 0  9995", "line2": "2 67224  45.0188 318.3021 0262888 280.1207  77.0133 15.64663678    93"}}, "geometry": {"type": "Point", "coordinates": [110.10972343094025, -4.869685357701436]}}, {"type": "Feature", "properties": {"norad_id": 67226, "name": "TJS-23", "group": "last-30-days", "lat": 7.8574993522270615, "lon": -34.0964808586988, "alt_km": 31086.37267527095, "timestamp": "2025-12-24T11:32:58.722901+00:00", "meta": {"OBJECT_NAME": "TJS-23", "OBJECT_ID": "2025-306A", "EPOCH": "2025-12-21T08:24:49.367232", "MEAN_MOTION": 1.72705756, "ECCENTRICITY": 0.77540409, "INCLINATION": 16.401, "RA_OF_ASC_NODE": 298.8861, "ARG_OF_PERICENTER": 179.8382, "MEAN_ANOMALY": 143.9016, "EPHEMERIS_TYPE": 0, "CLASSIFICATION_TYPE": "U", "NORAD_CAT_ID": 67226, "ELEMENT_SET_NO": 999, "REV_AT_EPOCH": 2, "BSTAR": 0.00071636348, "MEAN_MOTION_DOT": 3.331e-05, "MEAN_MOTION_DDOT": 0}, "tle": {"line1": "1 67226U 25306A   25355.35057138  .00003331  00000+0  71636-3 0  9996", "line2": "2 67226  16.4010 298.8861 7754040 179.8382 143.9016  1.72705756    20"}}, "geometry": {"type": "Point", "coordinates": [-34.0964808586988, 7.8574993522270615]}}, {"type": "Feature", "properties": {"norad_id": 67227, "name": "CZ-5 R/B", "group": "last-30-days", "lat": 1.952048498362318, "lon": -55.60189039501978, "alt_km": 40933.23950739554, "timestamp": "2025-12-24T11:32:58.722916+00:00", "meta": {"OBJECT_NAME": "CZ-5 R/B", "OBJECT_ID": "2025-306B", "EPOCH": "2025-12-20T19:22:03.368352", "MEAN_MOTION": 1.92163474, "ECCENTRICITY": 0.75788222, "INCLINATION": 16.4229, "RA_OF_ASC_NODE": 298.9498, "ARG_OF_PERICENTER": 179.0262, "MEAN_ANOMALY": 184.9269, "EPHEMERIS_TYPE": 0, "CLASSIFICATION_TYPE": "U", "NORAD_CAT_ID": 67227, "ELEMENT_SET_NO": 999, "REV_AT_EPOCH": 2, "BSTAR": 0.00048545663, "MEAN_MOTION_DOT": 1.201e-05, "MEAN_MOTION_DDOT": 0}, "tle": {"line1": "1 67227U 25306B   25354.80698343  .00001201  00000+0  48546-3 0  9993", "line2": "2 67227  16.4229 298.9498 7578822 179.0262 184.9269  1.92163474    23"}}, "geometry": {"type": "Point", "coordinates": [-55.60189039501978, 1.952048498362318]}}, {"type": "Feature", "properties": {"norad_id": 67228, "name": "QPS-SAR-15", "group": "last-30-days", "lat": -40.07606735290055, "lon": -4.7648951453573885, "alt_km": 574.1221236879555, "timestamp": "2025-12-24T11:32:58.722930+00:00", "meta": {"OBJECT_NAME": "QPS-SAR-15", "OBJECT_ID": "2025-307A", "EPOCH": "2025-12-21T08:45:22.976928", "MEAN_MOTION": 14.96940801, "ECCENTRICITY": 0.0010016, "INCLINATION": 42.0068, "RA_OF_ASC_NODE": 123.0965, "ARG_OF_PERICENTER": 272.7947, "MEAN_ANOMALY": 87.1731, "EPHEMERIS_TYPE": 0, "CLASSIFICATION_TYPE": "U", "NORAD_CAT_ID": 67228, "ELEMENT_SET_NO": 999, "REV_AT_EPOCH": 1, "BSTAR": -0.00011342309, "MEAN_MOTION_DOT": -1.505e-05, "MEAN_MOTION_DDOT": 0}, "tle": {"line1": "1 67228U 25307A   25355.36484927 -.00001505  00000+0 -11342-3 0  9991", "line2": "2 67228  42.0068 123.0965 0010016 272.7947  87.1731 14.96940801    19"}}, "geometry": {"type": "Point", "coordinates": [-4.7648951453573885, -40.07606735290055]}}, {"type": "Feature", "properties": {"norad_id": 67229, "name": "ELECTRON KICK STAGE R/B", "group": "last-30-days", "lat": 3.665651021789894, "lon": -79.62457130157851, "alt_km": 386.33183627914696, "timestamp": "2025-12-24T11:32:58.722959+00:00", "meta": {"OBJECT_NAME": "ELECTRON KICK STAGE R/B", "OBJECT_ID": "2025-307B", "EPOCH": "2025-12-21T08:41:51.108576", "MEAN_MOTION": 15.52867797, "ECCENTRICITY": 0.02558333, "INCLINATION": 41.9984, "RA_OF_ASC_NODE": 123.0965, "ARG_OF_PERICENTER": 237.1795, "MEAN_ANOMALY": 120.4177, "EPHEMERIS_TYPE": 0, "CLASSIFICATION_TYPE": "U", "NORAD_CAT_ID": 67229, "ELEMENT_SET_NO": 999, "REV_AT_EPOCH": 1, "BSTAR": 0.00022820983, "MEAN_MOTION_DOT": 0.00064668, "MEAN_MOTION_DDOT": 7.864022e-06}, "tle": {"line1": "1 67229U 25307B   25355.36239709  .00064668  78640-5  22821-3 0  9990", "line2": "2 67229  41.9984 123.0965 0255833 237.1795 120.4177 15.52867797    19"}}, "geometry": {"type": "Point", "coordinates": [-79.62457130157851, 3.665651021789894]}}, {"type": "Feature", "properties": {"norad_id": 67230, "name": "ELECTRON R/B", "group": "last-30-days", "lat": -12.360383838321827, "lon": -61.49791489561665, "alt_km": 402.30557588824104, "timestamp": "2025-12-24T11:32:58.722973+00:00", "meta": {"OBJECT_NAME": "ELECTRON R/B", "OBJECT_ID": "2025-307C", "EPOCH": "2025-12-21T08:41:59.140320", "MEAN_MOTION": 15.55087105, "ECCENTRICITY": 0.02614087, "INCLINATION": 41.982, "RA_OF_ASC_NODE": 123.1026, "ARG_OF_PERICENTER": 268.141, "MEAN_ANOMALY": 88.9482, "EPHEMERIS_TYPE": 0, "CLASSIFICATION_TYPE": "U", "NORAD_CAT_ID": 67230, "ELEMENT_SET_NO": 999, "REV_AT_EPOCH": 1, "BSTAR": 0.00020247584, "MEAN_MOTION_DOT": 0.00071881, "MEAN_MOTION_DDOT": 8.106877e-06}, "tle": {"line1": "1 67230U 25307C   25355.36249005  .00071881  81069-5  20248-3 0  9997", "line2": "2 67230  41.9820 123.1026 0261408 268.1410  88.9482 15.55087105    19"}}, "geometry": {"type": "Point", "coordinates": [-61.49791489561665, -12.360383838321827]}}]}